NORAD_CAT_ID,OBJECT_NAME,OBJECT_TYPE,EPOCH,MEAN_MOTION,ECCENTRICITY,INCLINATION,RA_OF_ASC_NODE,ARG_OF_PERICENTER,MEAN_ANOMALY,BSTAR,MEAN_MOTION_DOT,MEAN_MOTION_DDOT,TLE_LINE0,TLE_LINE1,TLE_LINE2,SEMIMAJOR_AXIS,PERIOD,APOGEE,PERIGEE,DECAYED
50176.0,STARLINK-3293,PAYLOAD,2023-05-02 17:33:36,15.08849651,8.15e-05,53.2152,246.6487,79.7126,280.3958,0.00031159,4.676e-05,0.0,0 STARLINK-3293,1 50176U 21125W   23122.73167724  .00004676  00000-0  31159-3 0  9992,2 50176  53.2152 246.6487 0000815  79.7126 280.3958 15.08849651 76210,6917.851,95.437,540.28,539.152,0.0
50176.0,STARLINK-3293,PAYLOAD,2023-05-03 12:38:14,15.08842352,9.25e-05,53.2168,243.0823,78.2367,281.8729,0.00018774,2.702e-05,0.0,0 STARLINK-3293,1 50176U 21125W   23123.52656089  .00002702  00000-0  18774-3 0  9993,2 50176  53.2168 243.0823 0000925  78.2367 281.8729 15.08842352 76331,6917.873,95.437,540.378,539.098,0.0
50176.0,STARLINK-3293,PAYLOAD,2023-05-03 15:49:00,15.08846432,0.000102,53.216,242.4868,73.1072,287.0032,0.00019654,2.842e-05,0.0,0 STARLINK-3293,1 50176U 21125W   23123.65903891  .00002842  00000-0  19654-3 0  9996,2 50176  53.2160 242.4868 0001020  73.1072 287.0032 15.08846432 79486,6917.861,95.437,540.431,539.02,0.0
50176.0,STARLINK-3293,PAYLOAD,2023-05-04 14:04:24,15.08844391,0.0001066,53.2167,238.3247,75.9496,284.1615,6.9678e-05,8.21e-06,0.0,0 STARLINK-3293,1 50176U 21125W   23124.58639928  .00000821  00000-0  69678-4 0  9993,2 50176  53.2167 238.3247 0001066  75.9496 284.1615 15.08844391 76493,6917.867,95.437,540.469,538.995,0.0
50176.0,STARLINK-3293,PAYLOAD,2023-05-05 07:33:39,15.08837396,0.0001025,53.2162,235.0539,81.0234,279.0875,0.00019428,2.805e-05,0.0,0 STARLINK-3293,1 50176U 21125W   23125.31504266  .00002805  00000-0  19428-3 0  9992,2 50176  53.2162 235.0539 0001025  81.0234 279.0875 15.08837396 76600,6917.888,95.438,540.462,539.044,0.0
50176.0,STARLINK-3293,PAYLOAD,2023-05-05 13:55:11,15.08843266,0.0001006,53.2167,233.8643,85.9311,274.1796,6.2622e-05,7.09e-06,0.0,0 STARLINK-3293,1 50176U 21125W   23125.57999852  .00000709  00000-0  62622-4 0  9995,2 50176  53.2167 233.8643 0001006  85.9311 274.1796 15.08843266 79777,6917.87,95.437,540.431,539.039,0.0
50176.0,STARLINK-3293,PAYLOAD,2023-05-05 17:05:57,15.08846949,9.96e-05,53.2166,233.2681,97.387,262.7235,6.8028e-05,7.95e-06,0.0,0 STARLINK-3293,1 50176U 21125W   23125.71247539  .00000795  00000-0  68028-4 0  9990,2 50176  53.2166 233.2681 0000996  97.3870 262.7235 15.08846949 76663,6917.859,95.437,540.413,539.035,0.0
50176.0,STARLINK-3293,PAYLOAD,2023-05-06 13:45:59,15.08840017,0.0001221,53.2165,229.4006,115.7738,244.338,3.175e-05,2.17e-06,0.0,0 STARLINK-3293,1 50176U 21125W   23126.57360213  .00000217  00000-0  31750-4 0  9991,2 50176  53.2165 229.4006 0001221 115.7738 244.3380 15.08840017 79929,6917.88,95.438,540.59,538.901,0.0
50176.0,STARLINK-3293,PAYLOAD,2023-05-06 23:18:17,15.08843761,9.43e-05,53.2167,227.6159,103.3253,256.7844,0.00011984,1.62e-05,0.0,0 STARLINK-3293,1 50176U 21125W   23126.97103768  .00001620  00000-0  11984-3 0  9990,2 50176  53.2167 227.6159 0000943 103.3253 256.7844 15.08843761 76855,6917.869,95.437,540.386,539.082,0.0
50176.0,STARLINK-3293,PAYLOAD,2023-05-07 12:01:22,15.08846923,8.95e-05,53.2161,225.2399,102.3759,257.7333,0.00012948,1.774e-05,0.0,0 STARLINK-3293,1 50176U 21125W   23127.50095610  .00001774  00000-0  12948-3 0  9997,2 50176  53.2161 225.2399 0000895 102.3759 257.7333 15.08846923 80060,6917.859,95.437,540.343,539.105,0.0
50176.0,STARLINK-3293,PAYLOAD,2023-05-08 11:52:10,15.08832274,0.0001053,53.2146,220.7817,104.0641,256.0468,-8.5997e-05,-1.656e-05,0.0,0 STARLINK-3293,1 50176U 21125W   23128.49456383 -.00001656  00000-0 -85997-4 0  9990,2 50176  53.2146 220.7817 0001053 104.0641 256.0468 15.08832274 77087,6917.904,95.438,540.497,539.041,0.0
50176.0,STARLINK-3293,PAYLOAD,2023-05-08 13:27:33,15.08834888,0.0001113,53.2154,220.4834,95.5928,264.5191,-4.7632e-05,-1.046e-05,0.0,0 STARLINK-3293,1 50176U 21125W   23128.56080301 -.00001046  00000-0 -47632-4 0  9998,2 50176  53.2154 220.4834 0001113  95.5928 264.5191 15.08834888 80221,6917.896,95.438,540.531,538.991,0.0
50176.0,STARLINK-3293,PAYLOAD,2023-05-09 13:18:20,15.08842348,0.0001219,53.2159,216.0215,83.4227,276.6904,2.8721e-05,1.69e-06,0.0,0 STARLINK-3293,1 50176U 21125W   23129.55440250  .00000169  00000-0  28721-4 0  9992,2 50176  53.2159 216.0215 0001219  83.4227 276.6904 15.08842348 80377,6917.873,95.437,540.582,538.895,0.0
50176.0,STARLINK-3293,PAYLOAD,2023-05-10 11:33:45,15.08835935,0.000131,53.2162,211.8549,76.7455,283.3684,0.00011533,1.548e-05,0.0,0 STARLINK-3293,1 50176U 21125W   23130.48177165  .00001548  00000-0  11533-3 0  9992,2 50176  53.2162 211.8549 0001310  76.7455 283.3684 15.08835935 80514,6917.893,95.438,540.664,538.852,0.0
50176.0,STARLINK-3293,PAYLOAD,2023-05-11 11:24:31,15.08846637,0.000134,53.2161,207.3983,73.267,286.8469,0.00018295,2.625e-05,0.0,0 STARLINK-3293,1 50176U 21125W   23131.47536980  .00002625  00000-0  18295-3 0  9995,2 50176  53.2161 207.3983 0001340  73.2670 286.8469 15.08846637 80665,6917.86,95.437,540.652,538.798,0.0
50176.0,STARLINK-3293,PAYLOAD,2023-05-11 22:32:14,15.08842825,0.0001367,53.2158,205.3179,74.8396,285.2748,0.00035138,5.309e-05,0.0,0 STARLINK-3293,1 50176U 21125W   23131.93905263  .00005309  00000-0  35138-3 0  9997,2 50176  53.2158 205.3179 0001367  74.8396 285.2748 15.08842825 80733,6917.872,95.437,540.682,538.791,0.0
50176.0,STARLINK-3293,PAYLOAD,2023-05-12 00:07:37,15.08844428,0.0001207,53.2153,205.0229,82.8822,277.2307,0.00025391,3.756e-05,0.0,0 STARLINK-3293,1 50176U 21125W   23132.00529078  .00003756  00000-0  25391-3 0  9996,2 50176  53.2153 205.0229 0001207  82.8822 277.2307 15.08844428 77613,6917.867,95.437,540.567,538.897,0.0
50176.0,STARLINK-3293,PAYLOAD,2023-05-12 08:04:33,15.08829798,0.0001149,53.2152,203.5335,99.1915,260.9207,0.00029155,4.354e-05,0.0,0 STARLINK-3293,1 50176U 21125W   23132.33649707  .00004354  00000-0  29155-3 0  9991,2 50176  53.2152 203.5335 0001149  99.1915 260.9207 15.08829798 77668,6917.912,95.438,540.571,538.982,0.0
50176.0,STARLINK-3293,PAYLOAD,2023-05-13 09:30:42,15.08847118,0.0001174,53.2148,198.7738,95.0334,265.0792,0.00012893,1.765e-05,0.0,0 STARLINK-3293,1 50176U 21125W   23133.39632704  .00001765  00000-0  12893-3 0  9991,2 50176  53.2148 198.7738 0001174  95.0334 265.0792 15.08847118 80950,6917.859,95.437,540.536,538.911,0.0
50176.0,STARLINK-3293,PAYLOAD,2023-05-13 12:41:28,15.08847558,0.0001177,53.2148,198.179,95.1119,265.0008,0.00012724,1.738e-05,0.0,0 STARLINK-3293,1 50176U 21125W   23133.52880607  .00001738  00000-0  12724-3 0  9996,2 50176  53.2148 198.1790 0001177  95.1119 265.0008 15.08847558 77849,6917.857,95.437,540.537,538.908,0.0
50176.0,STARLINK-3293,PAYLOAD,2023-05-14 07:46:07,15.08822906,0.0001126,53.217,194.61,113.7039,246.4071,0.00016007,2.259e-05,0.0,0 STARLINK-3293,1 50176U 21125W   23134.32369929  .00002259  00000-0  16007-3 0  9991,2 50176  53.2170 194.6100 0001126 113.7039 246.4071 15.08822906 77968,6917.933,95.439,540.577,539.019,0.0
50176.0,STARLINK-3293,PAYLOAD,2023-05-14 09:21:30,15.08824848,0.0001131,53.2169,194.3129,109.5637,250.5478,0.0001489,2.082e-05,0.0,0 STARLINK-3293,1 50176U 21125W   23134.38993867  .00002082  00000-0  14890-3 0  9993,2 50176  53.2169 194.3129 0001131 109.5637 250.5478 15.08824848 81102,6917.927,95.439,540.574,539.009,0.0
50176.0,STARLINK-3293,PAYLOAD,2023-05-14 20:29:12,15.08833702,0.0001158,53.2166,192.2326,86.6743,273.4382,8.6981e-06,-1.49e-06,0.0,0 STARLINK-3293,1 50176U 21125W   23134.85361775 -.00000149  00000-0  86981-5 0  9997,2 50176  53.2166 192.2326 0001158  86.6743 273.4382 15.08833702 81171,6917.9,95.438,540.566,538.964,0.0
50176.0,STARLINK-3293,PAYLOAD,2023-05-14 23:39:58,15.08837131,0.0001056,53.2158,191.6377,75.6909,284.42,-2.1747e-05,-6.34e-06,0.0,0 STARLINK-3293,1 50176U 21125W   23134.98609778 -.00000634  00000-0 -21747-4 0  9997,2 50176  53.2158 191.6377 0001056  75.6909 284.4200 15.08837131 78065,6917.889,95.438,540.485,539.024,0.0
50176.0,STARLINK-3293,PAYLOAD,2023-05-15 10:47:40,15.08848708,0.00012,53.216,189.5571,109.6863,250.4259,-6.9853e-05,-1.4e-05,0.0,0 STARLINK-3293,1 50176U 21125W   23135.44977148 -.00001400  00000-0 -69853-4 0  9990,2 50176  53.2160 189.5571 0001200 109.6863 250.4259 15.08848708 81263,6917.854,95.437,540.549,538.889,0.0
50176.0,STARLINK-3293,PAYLOAD,2023-05-15 20:19:59,15.08846822,0.0001036,53.2157,187.7719,92.1705,267.9406,-0.00010992,-2.037e-05,0.0,0 STARLINK-3293,1 50176U 21125W   23135.84721257 -.00002037  00000-0 -10992-3 0  9998,2 50176  53.2157 187.7719 0001036  92.1705 267.9406 15.08846822 78191,6917.86,95.437,540.441,539.008,0.0
50176.0,STARLINK-3293,PAYLOAD,2023-05-16 07:27:41,15.08836234,0.0001066,53.2157,185.6905,88.3962,271.7152,7.2109e-05,8.6e-06,0.0,0 STARLINK-3293,1 50176U 21125W   23136.31089913  .00000860  00000-0  72109-4 0  9996,2 50176  53.2157 185.6905 0001066  88.3962 271.7152 15.08836234 78265,6917.892,95.438,540.494,539.019,0.0
50176.0,STARLINK-3293,PAYLOAD,2023-05-16 12:13:50,15.08843093,0.0001025,53.2158,184.798,100.2861,259.8246,0.00012596,1.718e-05,0.0,0 STARLINK-3293,1 50176U 21125W   23136.50961306  .00001718  00000-0  12596-3 0  9998,2 50176  53.2158 184.7980 0001025 100.2861 259.8246 15.08843093 81420,6917.871,95.437,540.445,539.027,0.0
50176.0,STARLINK-3293,PAYLOAD,2023-05-16 20:10:46,15.0883875,0.0001076,53.2158,183.3115,85.6665,274.445,8.6776e-05,1.093e-05,0.0,0 STARLINK-3293,1 50176U 21125W   23136.84081751  .00001093  00000-0  86776-4 0  9990,2 50176  53.2158 183.3115 0001076  85.6665 274.4450 15.08838750 81478,6917.884,95.438,540.494,539.005,0.0
50176.0,STARLINK-3293,PAYLOAD,2023-05-17 10:29:14,15.08843698,0.0001205,53.2162,180.6363,100.4003,259.7125,0.00011218,1.498e-05,0.0,0 STARLINK-3293,1 50176U 21125W   23137.43697363  .00001498  00000-0  11218-3 0  9995,2 50176  53.2162 180.6363 0001205 100.4003 259.7125 15.08843698 78438,6917.869,95.437,540.568,538.9,0.0
